ONEWEB-0226             
1 48793U 21045AC  24080.90198261 -.00000059  00000+0 -18962-3 0  9997
2 48793  87.8975  62.0512 0001764  66.0535 294.0780 13.15547443136766
ONEWEB-0224             
1 48794U 21045AD  24080.94159263  .00000165  00000+0  40474-3 0  9990
2 48794  87.8977  62.0607 0001106  95.0224 265.1033 13.15547743136696
ONEWEB-0233             
1 48795U 21045AE  24080.93763610  .00000217  00000+0  54236-3 0  9996
2 48795  87.8977  62.0739 0001918  78.7758 281.3588 13.15548069136714
ONEWEB-0190             
1 48796U 21045AF  24080.93366759  .00000228  00000+0  57061-3 0  9991
2 48796  87.8976  62.0371 0001275  49.4237 310.7004 13.15549444136784
ONEWEB-0236             
1 48797U 21045AG  24080.95110421  .00000109  00000+0  25476-3 0  9990
2 48797  87.8982  62.0241 0001792  88.3425 271.7911 13.15547986136673
ONEWEB-0248             
1 48798U 21045AH  24080.96377818 -.00000173  00000+0 -49256-3 0  9992
2 48798  87.8972  62.0199 0001026  87.4889 272.6359 13.15548023136836
ONEWEB-0225             
1 48799U 21045AJ  24080.90990524 -.00000032  00000+0 -12023-3 0  9998
2 48799  87.8976  62.0386 0001470  73.2781 286.8511 13.15548178136834
ONEWEB-0215             
1 48800U 21045AK  24080.95584474  .00000020  00000+0  19294-4 0  9992
2 48800  87.8973  62.0086 0001032  70.4561 289.6681 13.15546898136713
